CCSDS_OMM_VERS = 2.0
CREATION_DATE  = 
ORIGINATOR     = 

OBJECT_NAME    = ALOS (DAICHI)
OBJECT_ID      = 2006-002A
CENTER_NAME    = EARTH
REF_FRAME      = TEME
TIME_SYSTEM    = UTC
MEAN_ELEMENT_THEORY = SGP/SGP4

EPOCH          = 2026-02-25T10:52:31.410048
MEAN_MOTION    = 14.69763473
ECCENTRICITY   = .0001446
INCLINATION    = 98.1197
RA_OF_ASC_NODE = 12.4722
ARG_OF_PERICENTER = 53.7253
MEAN_ANOMALY   = 306.4086

EPHEMERIS_TYPE = 0
CLASSIFICATION_TYPE = U
NORAD_CAT_ID   = 28931
ELEMENT_SET_NO = 999
REV_AT_EPOCH   = 7168
BSTAR          = .23809E-3
MEAN_MOTION_DOT = .1371E-4
MEAN_MOTION_DDOT = 0

CCSDS_OMM_VERS = 2.0
CREATION_DATE  = 
ORIGINATOR     = 

OBJECT_NAME    = H-2A R/B
OBJECT_ID      = 2006-002B
CENTER_NAME    = EARTH
REF_FRAME      = TEME
TIME_SYSTEM    = UTC
MEAN_ELEMENT_THEORY = SGP/SGP4

EPOCH          = 2026-02-25T09:36:43.961184
MEAN_MOTION    = 15.16125029
ECCENTRICITY   = .0051984
INCLINATION    = 98.2385
RA_OF_ASC_NODE = 202.3724
ARG_OF_PERICENTER = 283.4223
MEAN_ANOMALY   = 76.1216

EPHEMERIS_TYPE = 0
CLASSIFICATION_TYPE = U
NORAD_CAT_ID   = 28932
ELEMENT_SET_NO = 999
REV_AT_EPOCH   = 9257
BSTAR          = .43031E-3
MEAN_MOTION_DOT = .8505E-4
MEAN_MOTION_DDOT = 0

CCSDS_OMM_VERS = 2.0
CREATION_DATE  = 
ORIGINATOR     = 

OBJECT_NAME    = RESURS-DK 1
OBJECT_ID      = 2006-021A
CENTER_NAME    = EARTH
REF_FRAME      = TEME
TIME_SYSTEM    = UTC
MEAN_ELEMENT_THEORY = SGP/SGP4

EPOCH          = 2026-02-24T21:43:45.397056
MEAN_MOTION    = 15.12653726
ECCENTRICITY   = .0002838
INCLINATION    = 69.9313
RA_OF_ASC_NODE = 270.0941
ARG_OF_PERICENTER = 173.4781
MEAN_ANOMALY   = 186.6422

EPHEMERIS_TYPE = 0
CLASSIFICATION_TYPE = U
NORAD_CAT_ID   = 29228
ELEMENT_SET_NO = 999
REV_AT_EPOCH   = 8559
BSTAR          = .12423E-3
MEAN_MOTION_DOT = .207E-4
MEAN_MOTION_DDOT = 0

CCSDS_OMM_VERS = 2.0
CREATION_DATE  = 
ORIGINATOR     = 

OBJECT_NAME    = CZ-4B R/B
OBJECT_ID      = 2006-046C
CENTER_NAME    = EARTH
REF_FRAME      = TEME
TIME_SYSTEM    = UTC
MEAN_ELEMENT_THEORY = SGP/SGP4

EPOCH          = 2026-02-25T01:48:11.049696
MEAN_MOTION    = 15.16753501
ECCENTRICITY   = .00320936
INCLINATION    = 97.5624
RA_OF_ASC_NODE = 101.0176
ARG_OF_PERICENTER = 313.1500
MEAN_ANOMALY   = 46.7050

EPHEMERIS_TYPE = 0
CLASSIFICATION_TYPE = U
NORAD_CAT_ID   = 29507
ELEMENT_SET_NO = 999
REV_AT_EPOCH   = 5813
BSTAR          = .22771879E-3
MEAN_MOTION_DOT = .4456E-4
MEAN_MOTION_DDOT = 0

CCSDS_OMM_VERS = 2.0
CREATION_DATE  = 
ORIGINATOR     = 

OBJECT_NAME    = CZ-2C R/B
OBJECT_ID      = 2007-010B
CENTER_NAME    = EARTH
REF_FRAME      = TEME
TIME_SYSTEM    = UTC
MEAN_ELEMENT_THEORY = SGP/SGP4

EPOCH          = 2026-02-25T07:50:23.006688
MEAN_MOTION    = 14.20241277
ECCENTRICITY   = .0058324
INCLINATION    = 98.3975
RA_OF_ASC_NODE = 170.2257
ARG_OF_PERICENTER = 331.1375
MEAN_ANOMALY   = 28.6580

EPHEMERIS_TYPE = 0
CLASSIFICATION_TYPE = U
NORAD_CAT_ID   = 31114
ELEMENT_SET_NO = 999
REV_AT_EPOCH   = 97796
BSTAR          = .69259E-4
MEAN_MOTION_DOT = .109E-5
MEAN_MOTION_DDOT = 0

CCSDS_OMM_VERS = 2.0
CREATION_DATE  = 
ORIGINATOR     = 

OBJECT_NAME    = COSMO-SKYMED 1
OBJECT_ID      = 2007-023A
CENTER_NAME    = EARTH
REF_FRAME      = TEME
TIME_SYSTEM    = UTC
MEAN_ELEMENT_THEORY = SGP/SGP4

EPOCH          = 2026-02-25T11:52:54.218208
MEAN_MOTION    = 14.96431665
ECCENTRICITY   = .0001273
INCLINATION    = 97.8880
RA_OF_ASC_NODE = 247.4302
ARG_OF_PERICENTER = 82.8539
MEAN_ANOMALY   = 277.2826

EPHEMERIS_TYPE = 0
CLASSIFICATION_TYPE = U
NORAD_CAT_ID   = 31598
ELEMENT_SET_NO = 999
REV_AT_EPOCH   = 1308
BSTAR          = .23524E-3
MEAN_MOTION_DOT = .2608E-4
MEAN_MOTION_DDOT = 0

CCSDS_OMM_VERS = 2.0
CREATION_DATE  = 
ORIGINATOR     = 

OBJECT_NAME    = COSMOS 2428
OBJECT_ID      = 2007-029A
CENTER_NAME    = EARTH
REF_FRAME      = TEME
TIME_SYSTEM    = UTC
MEAN_ELEMENT_THEORY = SGP/SGP4

EPOCH          = 2026-02-25T11:59:21.302304
MEAN_MOTION    = 14.12942451
ECCENTRICITY   = .0008399
INCLINATION    = 70.9407
RA_OF_ASC_NODE = 228.9302
ARG_OF_PERICENTER = 290.1859
MEAN_ANOMALY   = 69.8358

EPHEMERIS_TYPE = 0
CLASSIFICATION_TYPE = U
NORAD_CAT_ID   = 31792
ELEMENT_SET_NO = 999
REV_AT_EPOCH   = 96237
BSTAR          = .11467E-3
MEAN_MOTION_DOT = .166E-5
MEAN_MOTION_DDOT = 0

CCSDS_OMM_VERS = 2.0
CREATION_DATE  = 
ORIGINATOR     = 

OBJECT_NAME    = SL-16 R/B
OBJECT_ID      = 2007-029B
CENTER_NAME    = EARTH
REF_FRAME      = TEME
TIME_SYSTEM    = UTC
MEAN_ELEMENT_THEORY = SGP/SGP4

EPOCH          = 2026-02-25T11:21:19.812672
MEAN_MOTION    = 14.14835618
ECCENTRICITY   = .0002467
INCLINATION    = 70.9754
RA_OF_ASC_NODE = 198.0624
ARG_OF_PERICENTER = 280.4683
MEAN_ANOMALY   = 137.0176

EPHEMERIS_TYPE = 0
CLASSIFICATION_TYPE = U
NORAD_CAT_ID   = 31793
ELEMENT_SET_NO = 999
REV_AT_EPOCH   = 96364
BSTAR          = -.81227E-4
MEAN_MOTION_DOT = -.205E-5
MEAN_MOTION_DDOT = 0

CCSDS_OMM_VERS = 2.0
CREATION_DATE  = 
ORIGINATOR     = 

OBJECT_NAME    = KORONAS-FOTON
OBJECT_ID      = 2009-003A
CENTER_NAME    = EARTH
REF_FRAME      = TEME
TIME_SYSTEM    = UTC
MEAN_ELEMENT_THEORY = SGP/SGP4

EPOCH          = 2026-02-25T02:52:10.190496
MEAN_MOTION    = 15.42975757
ECCENTRICITY   = .00101246
INCLINATION    = 82.4296
RA_OF_ASC_NODE = 288.9440
ARG_OF_PERICENTER = 193.7978
MEAN_ANOMALY   = 166.2995

EPHEMERIS_TYPE = 0
CLASSIFICATION_TYPE = U
NORAD_CAT_ID   = 33504
ELEMENT_SET_NO = 999
REV_AT_EPOCH   = 94380
BSTAR          = .26845486E-3
MEAN_MOTION_DOT = .11879E-3
MEAN_MOTION_DDOT = 0

CCSDS_OMM_VERS = 2.0
CREATION_DATE  = 
ORIGINATOR     = 

OBJECT_NAME    = CZ-2C R/B
OBJECT_ID      = 2011-030B
CENTER_NAME    = EARTH
REF_FRAME      = TEME
TIME_SYSTEM    = UTC
MEAN_ELEMENT_THEORY = SGP/SGP4

EPOCH          = 2026-02-25T11:04:59.534688
MEAN_MOTION    = 14.81165632
ECCENTRICITY   = .0053548
INCLINATION    = 97.8521
RA_OF_ASC_NODE = 13.9722
ARG_OF_PERICENTER = 31.6017
MEAN_ANOMALY   = 81.0360

EPHEMERIS_TYPE = 0
CLASSIFICATION_TYPE = U
NORAD_CAT_ID   = 37731
ELEMENT_SET_NO = 999
REV_AT_EPOCH   = 78828
BSTAR          = .2083E-3
MEAN_MOTION_DOT = .1606E-4
MEAN_MOTION_DDOT = 0

CCSDS_OMM_VERS = 2.0
CREATION_DATE  = 
ORIGINATOR     = 

OBJECT_NAME    = H-2A R/B
OBJECT_ID      = 2012-025E
CENTER_NAME    = EARTH
REF_FRAME      = TEME
TIME_SYSTEM    = UTC
MEAN_ELEMENT_THEORY = SGP/SGP4

EPOCH          = 2026-02-25T11:33:00.184896
MEAN_MOTION    = 14.95044297
ECCENTRICITY   = .0044695
INCLINATION    = 98.4704
RA_OF_ASC_NODE = 22.5540
ARG_OF_PERICENTER = 354.5652
MEAN_ANOMALY   = 5.5075

EPHEMERIS_TYPE = 0
CLASSIFICATION_TYPE = U
NORAD_CAT_ID   = 38341
ELEMENT_SET_NO = 999
REV_AT_EPOCH   = 74639
BSTAR          = .28937E-3
MEAN_MOTION_DOT = .3161E-4
MEAN_MOTION_DDOT = 0

CCSDS_OMM_VERS = 2.0
CREATION_DATE  = 
ORIGINATOR     = 

OBJECT_NAME    = SHIJIAN-16 (SJ-16)
OBJECT_ID      = 2013-057A
CENTER_NAME    = EARTH
REF_FRAME      = TEME
TIME_SYSTEM    = UTC
MEAN_ELEMENT_THEORY = SGP/SGP4

EPOCH          = 2026-02-25T11:52:22.342656
MEAN_MOTION    = 14.92281532
ECCENTRICITY   = .0016057
INCLINATION    = 74.9713
RA_OF_ASC_NODE = 208.1721
ARG_OF_PERICENTER = 143.7609
MEAN_ANOMALY   = 216.4670

EPHEMERIS_TYPE = 0
CLASSIFICATION_TYPE = U
NORAD_CAT_ID   = 39358
ELEMENT_SET_NO = 999
REV_AT_EPOCH   = 66968
BSTAR          = .11972E-3
MEAN_MOTION_DOT = .1196E-4
MEAN_MOTION_DDOT = 0

