ALOS (DAICHI)           
1 28931U 06002A   26056.45314132  .00001371  00000+0  23809-3 0  9999
2 28931  98.1197  12.4722 0001446  53.7253 306.4086 14.69763473 71687
H-2A R/B                
1 28932U 06002B   26056.40050881  .00008505  00000+0  43031-3 0  9998
2 28932  98.2385 202.3724 0051984 283.4223  76.1216 15.16125029 92570
RESURS-DK 1             
1 29228U 06021A   26055.90538654  .00002070  00000+0  12423-3 0  9993
2 29228  69.9313 270.0941 0002838 173.4781 186.6422 15.12653726 85595
CZ-4B R/B               
1 29507U 06046C   26056.07512789  .00004456  00000+0  22772-3 0  9998
2 29507  97.5624 101.0176 0032093 313.1500  46.7050 15.16753501 58137
CZ-2C R/B               
1 31114U 07010B   26056.32665517  .00000109  00000+0  69259-4 0  9996
2 31114  98.3975 170.2257 0058324 331.1375  28.6580 14.20241277977969
COSMO-SKYMED 1          
1 31598U 07023A   26056.49507197  .00002608  00000+0  23524-3 0  9993
2 31598  97.8880 247.4302 0001273  82.8539 277.2826 14.96431665 13089
COSMOS 2428             
1 31792U 07029A   26056.49955211  .00000166  00000+0  11467-3 0  9999
2 31792  70.9407 228.9302 0008399 290.1859  69.8358 14.12942451962379
SL-16 R/B               
1 31793U 07029B   26056.47314598 -.00000205  00000+0 -81227-4 0  9993
2 31793  70.9754 198.0624 0002467 280.4683 137.0176 14.14835618963641
KORONAS-FOTON           
1 33504U 09003A   26056.11956239  .00011879  00000+0  26845-3 0  9995
2 33504  82.4296 288.9440 0010124 193.7978 166.2995 15.42975757943809
CZ-2C R/B               
1 37731U 11030B   26056.46180017  .00001606  00000+0  20830-3 0  9990
2 37731  97.8521  13.9722 0053548  31.6017  81.0360 14.81165632788280
H-2A R/B                
1 38341U 12025E   26056.48125214  .00003161  00000+0  28937-3 0  9997
2 38341  98.4704  22.5540 0044695 354.5652   5.5075 14.95044297746395
SHIJIAN-16 (SJ-16)      
1 39358U 13057A   26056.49470304  .00001196  00000+0  11972-3 0  9993
2 39358  74.9713 208.1721 0016057 143.7609 216.4670 14.92281532669689
